norad_id,name,regime,epoch,line1,line2,inclination,eccentricity,mean_motion,raan,arg_pericenter,mean_anomaly
44333,AT&T T-16,GEO,23351.84965385,1 44333U 19034A   23351.84965385 -.00000105  00000-0  00000-0 0    17,2 44333   0.0178 350.0424 0001363 158.2942 142.9057  1.00269159 16487,0.0178,0.0001363,1.00269159,350.0424,158.2942,142.9057
44333,AT&T T-16,GEO,23352.09632671,1 44333U 19034A   23352.09632671 -.00000105  00000-0  00000-0 0    14,2 44333   0.0167 348.4655 0001262 153.9561 237.8678  1.00271553 16483,0.0167,0.0001262,1.00271553,348.4655,153.9561,237.8678
44333,AT&T T-16,GEO,23353.84753501,1 44333U 19034A   23353.84753501 -.00000106  00000-0  00000+0 0  1767,2 44333   0.0180   2.2358 0000848 129.3496 160.8438  1.00268337 16504,0.018,8.48e-05,1.00268337,2.2358,129.3496,160.8438
44333,AT&T T-16,GEO,23354.50316628,1 44333U 19034A   23354.50316628 -.00000105  00000-0  00000-0 0    13,2 44333   0.0176   8.4162 0000802 124.2142  36.4644  1.00268405 16516,0.0176,8.02e-05,1.00268405,8.4162,124.2142,36.4644
44333,AT&T T-16,GEO,23354.85837378,1 44333U 19034A   23354.85837378 -.00000105  00000-0  00000-0 0    11,2 44333   0.0186  10.3335 0000767 121.0452 165.9365  1.00268336 16511,0.0186,7.67e-05,1.00268336,10.3335,121.0452,165.9365
44333,AT&T T-16,GEO,23354.93001809,1 44333U 19034A   23354.93001809 -.00000105  00000-0  00000+0 0  1775,2 44333   0.0182  10.4427 0000794 123.3648 189.3694  1.00268359 16512,0.0182,7.94e-05,1.00268359,10.4427,123.3648,189.3694
44333,AT&T T-16,GEO,23355.43135963,1 44333U 19034A   23355.43135963 -.00000105  00000-0  00000-0 0    17,2 44333   0.0034  85.6600 0000812  72.7092 345.7888  1.00274196 16526,0.0034,8.12e-05,1.00274196,85.66,72.7092,345.7888
44333,AT&T T-16,GEO,23359.51967278,1 44333U 19034A   23359.51967278 -.00000104  00000-0  00000+0 0  1796,2 44333   0.0021 359.9462 0000355 108.7212  71.3240  1.00268599 16558,0.0021,3.55e-05,1.00268599,359.9462,108.7212,71.324
44333,AT&T T-16,GEO,23359.58791934,1 44333U 19034A   23359.58791934 -.00000104  00000-0  00000-0 0    12,2 44333   0.0102  21.9017 0000359  87.6987  95.0258  1.00268665 16565,0.0102,3.59e-05,1.00268665,21.9017,87.6987,95.0258
44333,AT&T T-16,GEO,23359.65725476,1 44333U 19034A   23359.65725476 -.00000105  00000-0  00000+0 0  1806,2 44333   0.0182   3.7847 0000356 103.8251 122.0449  1.00268691 16555,0.0182,3.56e-05,1.00268691,3.7847,103.8251,122.0449
44333,AT&T T-16,GEO,23359.87214837,1 44333U 19034A   23359.87214837 -.00000104  00000-0  00000-0 0    16,2 44333   0.0106  23.2789 0000349  85.8430 198.1042  1.00268807 16566,0.0106,3.49e-05,1.00268807,23.2789,85.843,198.1042
44333,AT&T T-16,GEO,23360.50358361,1 44333U 19034A   23360.50358361 -.00000105  00000-0  00000+0 0  1818,2 44333   0.0157 343.0985 0000333 123.5427  68.5179  1.00269009 16568,0.0157,3.33e-05,1.00269009,343.0985,123.5427,68.5179
44333,AT&T T-16,GEO,23360.62197275,1 44333U 19034A   23360.62197275 -.00000105  00000-0  00000+0 0  1827,2 44333   0.0036  63.2575 0000330  39.5420 115.0955  1.00268963 16564,0.0036,3.3e-05,1.00268963,63.2575,39.542,115.0955
44333,AT&T T-16,GEO,23360.87475367,1 44333U 19034A   23360.87475367 -.00000105  00000-0  00000-0 0    16,2 44333   0.0068  50.5119 0000338  52.2098 206.4206  1.00268940 16573,0.0068,3.38e-05,1.0026894,50.5119,52.2098,206.4206
44333,AT&T T-16,GEO,23361.12000247,1 44333U 19034A   23361.12000247 -.00000106  00000-0  00000+0 0  1837,2 44333   0.0112 344.5190 0000333 116.4360 296.7163  1.00268918 16577,0.0112,3.33e-05,1.00268918,344.519,116.436,296.7163
44333,AT&T T-16,GEO,23361.42741309,1 44333U 19034A   23361.42741309 -.00000106  00000-0  00000+0 0  1842,2 44333   0.0111  40.4354 0000331  58.9606  49.2434  1.00268954 16573,0.0111,3.31e-05,1.00268954,40.4354,58.9606,49.2434
44333,AT&T T-16,GEO,23361.61512154,1 44333U 19034A   23361.61512154 -.00000106  00000-0  00000+0 0  1858,2 44333   0.0177   0.8520 0000341  97.5410 118.0046  1.00268980 16576,0.0177,3.41e-05,1.0026898,0.852,97.541,118.0046
44333,AT&T T-16,GEO,23361.92480069,1 44333U 19034A   23361.92480069 -.00000106  00000-0  00000-0 0    19,2 44333   0.0170   2.9329 0000351  96.8912 228.3602  1.00268985 16588,0.017,3.51e-05,1.00268985,2.9329,96.8912,228.3602
44333,AT&T T-16,GEO,23362.46411713,1 44333U 19034A   23362.46411713 -.00000106  00000-0  00000+0 0  1862,2 44333   0.0252  28.4885 0000440 121.4911  12.9074  1.00271920 16585,0.0252,4.4e-05,1.0027192,28.4885,121.4911,12.9074
44333,AT&T T-16,GEO,23362.59714045,1 44333U 19034A   23362.59714045 -.00000106  00000-0  00000-0 0    17,2 44333   0.0256  29.1352 0000456 113.7974  67.9738  1.00271010 16594,0.0256,4.56e-05,1.0027101,29.1352,113.7974,67.9738
44333,AT&T T-16,GEO,23362.66558939,1 44333U 19034A   23362.66558939 -.00000106  00000-0  00000+0 0  1877,2 44333   0.0255  29.7187 0000474 110.8733  95.0235  1.00270629 16584,0.0255,4.74e-05,1.00270629,29.7187,110.8733,95.0235
44333,AT&T T-16,GEO,23363.65592007,1 44333U 19034A   23363.65592007 -.00000105  00000-0  00000-0 0    16,2 44333   0.0158 359.8814 0000693 157.1603  76.0658  1.00269725 16609,0.0158,6.93e-05,1.00269725,359.8814,157.1603,76.0658
44333,AT&T T-16,GEO,23364.51944543,1 44333U 19034A   23364.51944543 -.00000104  00000-0  00000-0 0    17,2 44333   0.0153   0.6643 0000434 154.5637  29.6087  1.00275902 16611,0.0153,4.34e-05,1.00275902,0.6643,154.5637,29.6087
44333,AT&T T-16,GEO,23364.62905395,1 44333U 19034A   23364.62905395 -.00000103  00000-0  00000+0 0  1908,2 44333   0.0211  21.6660 0000738 125.2166  77.5286  1.00267806 16603,0.0211,7.38e-05,1.00267806,21.666,125.2166,77.5286
44333,AT&T T-16,GEO,23364.88598843,1 44333U 19034A   23364.88598843 -.00000103  00000-0  00000-0 0    14,2 44333   0.0207  22.1117 0000680 121.5643 173.4848  1.00268918 16612,0.0207,6.8e-05,1.00268918,22.1117,121.5643,173.4848
44333,AT&T T-16,GEO,23365.11970304,1 44333U 19034A   23365.11970304 -.00000103  00000-0  00000+0 0  1916,2 44333   0.0208  24.2477 0000628 106.7427 270.5403  1.00270499 16615,0.0208,6.28e-05,1.00270499,24.2477,106.7427,270.5403
44333,AT&T T-16,GEO,23365.55049271,1 44333U 19034A   23365.55049271 -.00000102  00000-0  00000-0 0    14\,2 44333   0.0181 350.5000 0000498 175.7443  30.7933  1.00277739 16620,0.0181,4.98e-05,1.00277739,350.5,175.7443,30.7933
44333,AT&T T-16,GEO,24001.66110927,1 44333U 19034A   24001.66110927 -.00000098  00000-0  00000-0 0    15\,2 44333   0.0185 350.9045 0000465 130.9239 116.1187  1.00270284 16636,0.0185,4.65e-05,1.00270284,350.9045,130.9239,116.1187
44333,AT&T T-16,GEO,24002.33983031,1 44333U 19034A   24002.33983031 -.00000096  00000-0  00000+0 0  1944\,2 44333   0.0172  12.8763 0000626  96.6748  13.3980  1.00269177 16633,0.0172,6.26e-05,1.00269177,12.8763,96.6748,13.398
44333,AT&T T-16,GEO,24002.54258000,1 44333U 19034A   24002.54258000 -.00000095  00000-0  00000-0 0    15\,2 44333   0.0165  11.6804 0000633  95.4804  88.9762  1.00269101 16640,0.0165,6.33e-05,1.00269101,11.6804,95.4804,88.9762
44333,AT&T T-16,GEO,24002.64741959,1 44333U 19034A   24002.64741959 -.00000094  00000-0  00000-0 0    15\,2 44333   0.0167  14.5342 0000638  90.7175 128.7300  1.00269069 16649,0.0167,6.38e-05,1.00269069,14.5342,90.7175,128.73
44333,AT&T T-16,GEO,24003.38009510,1 44333U 19034A   24003.38009510 -.00000092  00000-0  00000+0 0  1958\,2 44333   0.0167  19.4266 0000673  85.3383  33.6954  1.00269038 16643,0.0167,6.73e-05,1.00269038,19.4266,85.3383,33.6954
44333,AT&T T-16,GEO,24003.56889280,1 44333U 19034A   24003.56889280 -.00000091  00000-0  00000-0 0    14\,2 44333   0.0212  24.5406 0000756  71.4111 110.6626  1.00266948 16654,0.0212,7.56e-05,1.00266948,24.5406,71.4111,110.6626
44333,AT&T T-16,GEO,24004.38109240,1 44333U 19034A   24004.38109240 -.00000089  00000-0  00000-0 0    13\,2 44333   0.0229  27.8483 0000819  65.5698  46.3786  1.00267009 16669,0.0229,8.19e-05,1.00267009,27.8483,65.5698,46.3786
44333,AT&T T-16,GEO,24006.03475831,1 44333U 19034A   24006.03475831 -.00000088  00000-0  00000+0 0  1973\,2 44333   0.0145   0.9282 0001086 118.7751 257.0683  1.00276155 16673,0.0145,0.0001086,1.00276155,0.9282,118.7751,257.0683
44333,AT&T T-16,GEO,24006.36888156,1 44333U 19034A   24006.36888156 -.00000088  00000-0  00000-0 0    12\,2 44333   0.0014  62.7780 0001396  66.2476   8.3761  1.00282618 16688,0.0014,0.0001396,1.00282618,62.778,66.2476,8.3761
44333,AT&T T-16,GEO,24006.68976654,1 44333U 19034A   24006.68976654 -.00000086  00000-0  00000-0 0    16\,2 44333   0.0173 351.7454 0001116 156.5237 104.9491  1.00269442 16684,0.0173,0.0001116,1.00269442,351.7454,156.5237,104.9491
44333,AT&T T-16,GEO,24009.69776019,1 44333U 19034A   24009.69776019 -.00000093  00000-0  00000+0 0  2001\,2 44333   0.0249  37.1739 0000868  79.2265 142.6542  1.00267714 16703,0.0249,8.68e-05,1.00267714,37.1739,79.2265,142.6542
44333,AT&T T-16,GEO,24009.84119149,1 44333U 19034A   24009.84119149 -.00000093  00000-0  00000-0 0    13\,2 44333   0.0251  37.2613 0000883  78.3081 195.2602  1.00267498 16712,0.0251,8.83e-05,1.00267498,37.2613,78.3081,195.2602
44333,AT&T T-16,GEO,24010.38660594,1 44333U 19034A   24010.38660594 -.00000095  00000-0  00000-0 0    11\,2 44333   0.0259  42.7385 0000867  76.7871  28.1866  1.00267258 16729,0.0259,8.67e-05,1.00267258,42.7385,76.7871,28.1866
44333,AT&T T-16,GEO,24010.70029513,1 44333U 19034A   24010.70029513 -.00000097  00000-0  00000+0 0  2010\,2 44333   0.0262  47.2847 0000890  79.0171 134.6454  1.00267212 16716,0.0262,8.9e-05,1.00267212,47.2847,79.0171,134.6454
44333,AT&T T-16,GEO,24011.12000074,1 44333U 19034A   24011.12000074 -.00000099  00000-0  00000+0 0  2021\,2 44333   0.0270  50.9255 0000737  71.4476 290.0861  1.00270408 16724,0.027,7.37e-05,1.00270408,50.9255,71.4476,290.0861
44333,AT&T T-16,GEO,24011.41680385,1 44333U 19034A   24011.41680385 -.00000100  00000-0  00000-0 0    13\,2 44333   0.0265  51.9250 0000749  77.6514  30.0264  1.00270937 16735,0.0265,7.49e-05,1.00270937,51.925,77.6514,30.0264
